NORAD_CAT_ID,OBJECT_NAME,OBJECT_TYPE,EPOCH,MEAN_MOTION,ECCENTRICITY,INCLINATION,RA_OF_ASC_NODE,ARG_OF_PERICENTER,MEAN_ANOMALY,BSTAR,MEAN_MOTION_DOT,MEAN_MOTION_DDOT,TLE_LINE0,TLE_LINE1,TLE_LINE2,SEMIMAJOR_AXIS,PERIOD,APOGEE,PERIGEE,DECAYED
53841.0,STARLINK-4750,PAYLOAD,2022-12-23 20:41:20,15.08838428,0.0002119,53.2165,154.7799,49.9246,310.1932,1.8841e-06,-2.58e-06,0.0,0 STARLINK-4750,1 53841U 22114Z   22357.86204167 -.00000258  00000-0  18841-5 0  9997,2 53841  53.2165 154.7799 0002119  49.9246 310.1932 15.08838428 16063,6917.885,95.438,541.216,538.284,0.0
53841.0,STARLINK-4750,PAYLOAD,2022-12-23 22:16:43,15.08840529,0.0002116,53.2165,154.4826,48.9565,311.161,1.564e-05,-3.9e-07,0.0,0 STARLINK-4750,1 53841U 22114Z   22357.92827981 -.00000039  00000-0  15640-4 0  9999,2 53841  53.2165 154.4826 0002116  48.9565 311.1610 15.08840529 15531,6917.879,95.438,541.2080000000002,538.28,0.0
53841.0,STARLINK-4750,PAYLOAD,2022-12-24 10:59:48,15.08842643,0.0002163,53.2166,152.1035,49.8844,310.2337,4.1719e-06,-2.22e-06,0.0,0 STARLINK-4750,1 53841U 22114Z   22358.45819787 -.00000222  00000-0  41719-5 0  9994,2 53841  53.2166 152.1035 0002163  49.8844 310.2337 15.08842643 16155,6917.871999999999,95.437,541.234,538.241,0.0
53841.0,STARLINK-4750,PAYLOAD,2022-12-24 17:21:21,15.08835998,0.0002158,53.2168,150.9139,51.1054,309.013,-6.2428e-05,-1.282e-05,0.0,0 STARLINK-4750,1 53841U 22114Z   22358.72316406 -.00001282  00000-0 -62428-4 0  9991,2 53841  53.2168 150.9139 0002158  51.1054 309.0130 15.08835998 16197,6917.893,95.438,541.251,538.265,0.0
53841.0,STARLINK-4750,PAYLOAD,2022-12-25 02:53:40,15.08837313,0.0002211,53.2179,149.1296,48.7399,311.3783,-7.1794e-05,-1.431e-05,0.0,0 STARLINK-4750,1 53841U 22114Z   22359.12060412 -.00001431  00000-0 -71794-4 0  9991,2 53841  53.2179 149.1296 0002211  48.7399 311.3783 15.08837313 15717,6917.889,95.438,541.283,538.224,0.0
53841.0,STARLINK-4750,PAYLOAD,2022-12-25 09:15:12,15.08843432,0.0002068,53.2171,147.9403,44.9847,315.1312,-5.0126e-05,-1.086e-05,0.0,0 STARLINK-4750,1 53841U 22114Z   22359.38555873 -.00001086  00000-0 -50126-4 0  9991,2 53841  53.2171 147.9403 0002068  44.9847 315.1312 15.08843432 15754,6917.87,95.437,541.1659999999998,538.304,0.0
53841.0,STARLINK-4750,PAYLOAD,2022-12-25 17:12:08,15.08827999,0.0002137,53.2183,146.4531,41.6079,318.5076,7.1662e-06,-1.74e-06,0.0,0 STARLINK-4750,1 53841U 22114Z   22359.71676801 -.00000174  00000-0  71662-5 0  9998,2 53841  53.2183 146.4531 0002137  41.6079 318.5076 15.08827999 15801,6917.917,95.438,541.26,538.304,0.0
53841.0,STARLINK-4750,PAYLOAD,2022-12-25 20:22:55,15.08830047,0.0001993,53.2172,145.8588,41.5121,318.6022,-0.00010129,-1.899e-05,0.0,0 STARLINK-4750,1 53841U 22114Z   22359.84925120 -.00001899  00000-0 -10129-3 0  9998,2 53841  53.2172 145.8588 0001993  41.5121 318.6022 15.08830047 16362,6917.911,95.438,541.155,538.3969999999998,0.0
53841.0,STARLINK-4750,PAYLOAD,2022-12-26 02:44:27,15.08845249,0.0002043,53.2176,144.6694,40.8276,319.2869,-0.00021784,-3.754e-05,0.0,0 STARLINK-4750,1 53841U 22114Z   22360.11420607 -.00003754  00000-0 -21784-3 0  9991,2 53841  53.2176 144.6694 0002043  40.8276 319.2869 15.08845249 15861,6917.864000000001,95.437,541.143,538.316,0.0
53841.0,STARLINK-4750,PAYLOAD,2022-12-27 02:35:13,15.08845622,0.0002035,53.2171,140.2088,41.3402,318.7744,8.864200000000001e-05,1.123e-05,0.0,0 STARLINK-4750,1 53841U 22114Z   22361.10779786  .00001123  00000-0  88642-4 0  9999,2 53841  53.2171 140.2088 0002035  41.3402 318.7744 15.08845622 16012,6917.863,95.437,541.136,538.32,0.0
53841.0,STARLINK-4750,PAYLOAD,2022-12-27 20:04:28,15.08840142,0.0002083,53.2165,136.9379,42.1119,318.0033,0.00010187,1.333e-05,0.0,0 STARLINK-4750,1 53841U 22114Z   22361.83643905  .00001333  00000-0  10187-3 0  9993,2 53841  53.2165 136.9379 0002083  42.1119 318.0033 15.08840142 16125,6917.88,95.438,541.186,538.304,0.0
53841.0,STARLINK-4750,PAYLOAD,2022-12-28 11:58:19,15.08840693,0.0001919,53.2162,133.9612,43.4257,316.6886,2.0432e-05,3.7e-07,0.0,0 STARLINK-4750,1 53841U 22114Z   22362.49883947  .00000037  00000-0  20432-4 0  9993,2 53841  53.2162 133.9612 0001919  43.4257 316.6886 15.08840693 16764,6917.878000000002,95.438,541.071,538.4159999999998,0.0
53841.0,STARLINK-4750,PAYLOAD,2022-12-28 19:55:16,15.08830439,0.0002112999999999,53.2172,132.4738,42.2768,317.8386,-0.0001238,-2.258e-05,0.0,0 STARLINK-4750,1 53841U 22114Z   22362.83005208 -.00002258  00000-0 -12380-3 0  9998,2 53841  53.2172 132.4738 0002113  42.2768 317.8386 15.08830439 16270,6917.91,95.438,541.236,538.313,0.0
53841.0,STARLINK-4750,PAYLOAD,2022-12-29 19:46:03,15.08834968,0.0001819,53.2179,128.0155,42.1096,318.0036,-0.00010297,-1.926e-05,0.0,0 STARLINK-4750,1 53841U 22114Z   22363.82365172 -.00001926  00000-0 -10297-3 0  9993,2 53841  53.2179 128.0155 0001819  42.1096 318.0036 15.08834968 16429,6917.896,95.438,541.019,538.502,0.0
53841.0,STARLINK-4750,PAYLOAD,2022-12-30 13:15:17,15.08834109,0.0002508999999999,53.2167,124.7478,32.6242,327.4905,0.00015051,2.107e-05,0.0,0 STARLINK-4750,1 53841U 22114Z   22364.55228495  .00002107  00000-0  15051-3 0  9993,2 53841  53.2167 124.7478 0002509  32.6242 327.4905 15.08834109 16539,6917.898,95.438,541.499,538.028,0.0
53841.0,STARLINK-4750,PAYLOAD,2022-12-30 18:01:25,15.08846169,0.0002137,53.2164,123.8546,36.8362,323.2776,0.00021454,3.128e-05,0.0,0 STARLINK-4750,1 53841U 22114Z   22364.75099427  .00003128  00000-0  21454-3 0  9994,2 53841  53.2164 123.8546 0002137  36.8362 323.2776 15.08846169 16560,6917.861999999999,95.437,541.205,538.248,0.0
53841.0,STARLINK-4750,PAYLOAD,2022-12-31 13:06:03,15.08846132,0.0002143,53.217,120.286,37.0721,323.0419,0.00013879,1.922e-05,0.0,0 STARLINK-4750,1 53841U 22114Z   22365.54587318  .00001922  00000-0  13879-3 0  9995,2 53841  53.2170 120.2860 0002143  37.0721 323.0419 15.08846132 17222,6917.861999999999,95.437,541.2090000000002,538.244,0.0
53841.0,STARLINK-4750,PAYLOAD,2022-12-31 17:52:13,15.08840558,0.0002174,53.2168,119.3943,36.2084,323.9055,7.9817e-05,9.82e-06,0.0,0 STARLINK-4750,1 53841U 22114Z   22365.74459810  .00000982  00000-0  79817-4 0  9992,2 53841  53.2168 119.3943 0002174  36.2084 323.9055 15.08840558 17251,6917.879,95.438,541.248,538.24,0.0
53841.0,STARLINK-4750,PAYLOAD,2023-01-01 11:21:30,15.08818647,0.0001963,53.2156,116.1212,31.5365,328.5745,-0.00035509,-5.932e-05,0.0,0 STARLINK-4750,1 53841U 22114Z   23001.47326942 -.00005932  00000-0 -35509-3 0  9990,2 53841  53.2156 116.1212 0001963  31.5365 328.5745 15.08818647 16820,6917.946,95.439,541.169,538.453,0.0
53841.0,STARLINK-4750,PAYLOAD,2023-01-01 17:43:02,15.08829172,0.0001841999999999,53.2164,114.9334,34.0252,326.0857,-0.00023626,-4.045e-05,0.0,0 STARLINK-4750,1 53841U 22114Z   23001.73822119 -.00004045  00000-0 -23626-3 0  9997,2 53841  53.2164 114.9334 0001842  34.0252 326.0857 15.08829172 17406,6917.913000000001,95.438,541.053,538.504,0.0
53841.0,STARLINK-4750,PAYLOAD,2023-01-02 00:04:34,15.08835559,0.0002043,53.2172,113.7455,37.2276,322.8858,-0.00016518,-2.916e-05,0.0,0 STARLINK-4750,1 53841U 22114Z   23002.00317775 -.00002916  00000-0 -16518-3 0  9992,2 53841  53.2172 113.7455 0002043  37.2276 322.8858 15.08835559 16906,6917.894,95.438,541.172,538.346,0.0
53841.0,STARLINK-4750,PAYLOAD,2023-01-02 14:23:01,15.08842619,0.0002134999999999,53.2167,111.0685,34.028,326.0848,2.0795e-05,4.3e-07,0.0,0 STARLINK-4750,1 53841U 22114Z   23002.59932582  .00000043  00000-0  20795-4 0  9995,2 53841  53.2167 111.0685 0002135  34.0280 326.0848 15.08842619 16997,6917.871999999999,95.437,541.214,538.26,0.0
53841.0,STARLINK-4750,PAYLOAD,2023-01-03 07:52:17,15.08810398,0.0002096,53.2169,107.7973,32.9601,327.1522,0.00022018,3.215e-05,0.0,0 STARLINK-4750,1 53841U 22114Z   23003.32797997  .00003215  00000-0  22018-3 0  9999,2 53841  53.2169 107.7973 0002096  32.9601 327.1522 15.08810398 17105,6917.971,95.439,541.286,538.386,0.0
53841.0,STARLINK-4750,PAYLOAD,2023-01-04 10:53:51,15.08833866,0.0002139,53.2168,102.7425,38.4653,321.6491,-5.959600000000001e-06,-3.83e-06,0.0,0 STARLINK-4750,1 53841U 22114Z   23004.45406396 -.00000383  00000-0 -59596-5 0  9992,2 53841  53.2168 102.7425 0002139  38.4653 321.6491 15.08833866 17274,6917.899,95.438,541.244,538.284,0.0
53841.0,STARLINK-4750,PAYLOAD,2023-01-04 14:04:35,15.08856811,0.0002205,53.2172,102.1471,33.6399,326.4733,0.00010535,1.39e-05,0.0,0 STARLINK-4750,1 53841U 22114Z   23004.58652535  .00001390  00000-0  10535-3 0  9999,2 53841  53.2172 102.1471 0002205  33.6399 326.4733 15.08856811 17291,6917.829000000002,95.436,541.219,538.169,0.0
53841.0,STARLINK-4750,PAYLOAD,2023-01-05 12:19:58,15.08856937,0.0002305,53.218,97.9844,34.3295,325.7846,0.0001761,2.517e-05,0.0,0 STARLINK-4750,1 53841U 22114Z   23005.51387284  .00002517  00000-0  17610-3 0  9992,2 53841  53.2180  97.9844 0002305  34.3295 325.7846 15.08856937 17970,6917.829000000002,95.436,541.288,538.099,0.0
53841.0,STARLINK-4750,PAYLOAD,2023-01-05 15:30:44,15.08856032,0.0002239,53.2173,97.389,32.3195,327.7934,0.00014707,2.054e-05,0.0,0 STARLINK-4750,1 53841U 22114Z   23005.64635268  .00002054  00000-0  14707-3 0  9994,2 53841  53.2173  97.3890 0002239  32.3195 327.7934 15.08856032 17998,6917.831,95.437,541.245,538.1469999999998,0.0
53841.0,STARLINK-4750,PAYLOAD,2023-01-06 05:49:14,15.08850956,0.000269,53.2175,94.7138,42.1479,317.972,-0.0001315999999999,-2.383e-05,0.0,0 STARLINK-4750,1 53841U 22114Z   23006.24252612 -.00002383  00000-0 -13160-3 0  9998,2 53841  53.2175  94.7138 0002690  42.1479 317.9720 15.08850956 17545,6917.847,95.437,541.573,537.851,0.0
53841.0,STARLINK-4750,PAYLOAD,2023-01-06 12:10:49,15.08816165,0.0002199,53.2175,93.5232,28.1554,331.9556,-0.00040882,-6.785e-05,0.0,0 STARLINK-4750,1 53841U 22114Z   23006.50751644 -.00006785  00000-0 -40882-3 0  9997,2 53841  53.2175  93.5232 0002199  28.1554 331.9556 15.08816165 17580,6917.953,95.439,541.34,538.297,0.0
